{
    "links": {
        "self": "http://www.neowsapp.com/rest/v1/neo/3449125?api_key=iIulBulltgU6a56xZRHN4H3l9WmuAYTsLGpBGhQ2"
    },
    "id": "3449125",
    "neo_reference_id": "3449125",
    "name": "(2009 EA1)",
    "designation": "2009 EA1",
    "nasa_jpl_url": "http://ssd.jpl.nasa.gov/sbdb.cgi?sstr=3449125",
    "absolute_magnitude_h": 25.8,
    "estimated_diameter": {
        "kilometers": {
            "estimated_diameter_min": 0.0183888672,
            "estimated_diameter_max": 0.0411187571
        },
        "meters": {
            "estimated_diameter_min": 18.388867207,
            "estimated_diameter_max": 41.1187571041
        },
        "miles": {
            "estimated_diameter_min": 0.0114263088,
            "estimated_diameter_max": 0.0255500032
        },
        "feet": {
            "estimated_diameter_min": 60.3309310875,
            "estimated_diameter_max": 134.9040630575
        }
    },
    "is_potentially_hazardous_asteroid": false,
    "close_approach_data": [
        {
            "close_approach_date": "2009-03-04",
            "close_approach_date_full": "2009-Mar-04 23:03",
            "epoch_date_close_approach": 1236207780000,
            "relative_velocity": {
                "kilometers_per_second": "6.0839218793",
                "kilometers_per_hour": "21902.1187653067",
                "miles_per_hour": "13609.1248516985"
            },
            "miss_distance": {
                "astronomical": "0.0807249218",
                "lunar": "31.4019945802",
                "kilometers": "12076276.357196566",
                "miles": "7503850.1702059708"
            },
            "orbiting_body": "Earth"
        }
    ],
    "orbital_data": {
        "orbit_id": "6",
        "orbit_determination_date": "2017-04-06 09:01:06",
        "first_observation_date": "2009-03-02",
        "last_observation_date": "2009-03-03",
        "data_arc_in_days": 1,
        "observations_used": 15,
        "orbit_uncertainty": "9",
        "minimum_orbit_intersection": ".0800925",
        "jupiter_tisserand_invariant": "4.237",
        "epoch_osculation": "2454893.5",
        "eccentricity": ".3457088153698203",
        "semi_major_axis": "1.625434711520668",
        "inclination": "8.935342122796893",
        "ascending_node_longitude": "153.7912208384953",
        "orbital_period": "756.9247774569767",
        "perihelion_distance": "1.063507602939872",
        "perihelion_argument": "18.82717082899547",
        "aphelion_distance": "2.187361820101463",
        "perihelion_time": "2454903.852518107381",
        "mean_anomaly": "355.0762524498427",
        "mean_motion": ".4756086875759095",
        "equinox": "J2000",
        "orbit_class": {
            "orbit_class_type": "AMO",
            "orbit_class_description": "Near-Earth asteroid orbits similar to that of 1221 Amor",
            "orbit_class_range": "1.017 AU < q (perihelion) < 1.3 AU"
        }
    },
    "is_sentry_object": false
}